0 OPS 4988 (GREB 6)
1 01271U 65016A   13283.41972344  .00000079  00000-0  95839-4 0  4359
2 01271 070.0796 307.1579 0019337 036.9164 026.6455 13.95857815472739
0 OPS 4988 (GREB 6)
1 01271U 65016A   13284.51211302  .00000058  00000-0  80696-4 0  4364
2 01271 070.0794 304.8320 0019398 035.3568 116.1224 13.95858119472886
0 OPS 4988 (GREB 6)
1 01271U 65016A   13285.72365890  .00000016  00000-0  49767-4 0  4379
2 01271 070.0793 302.2522 0019478 033.5869 084.4231 13.95858595473057
0 OPS 4988 (GREB 6)
1 01271U 65016A   13286.72571940  .00000016  00000-0  49755-4 0  4383
2 01271 070.0793 300.1186 0019552 032.1444 079.9918 13.95858890473191
0 OPS 4988 (GREB 6)
1 01271U 65016A   13287.73026897  .00000036  00000-0  64568-4 0  4393
2 01271 070.0793 297.9795 0019602 030.7623 088.0074 13.95859159473338
0 OPS 4988 (GREB 6)
1 01271U 65016A   13289.15284292  .00000044  00000-0  70223-4 0  4402
2 01271 070.0794 294.9503 0019684 028.8191 036.6481 13.95859444473531
0 OPS 4988 (GREB 6)
1 01271U 65016A   13290.45989786  .00000038  00000-0  66082-4 0  4419
2 01271 070.0795 292.1671 0019748 027.0348 124.7886 13.95859610473717
0 OPS 4988 (GREB 6)
1 01271U 65016A   13291.67207896  .00000022  00000-0  54335-4 0  4421
2 01271 070.0797 289.5858 0019855 025.3423 096.2106 13.95859855473887
0 OPS 4988 (GREB 6)
1 01271U 65016A   13293.08858968  .00000050  00000-0  74731-4 0  4434
2 01271 070.0798 286.5696 0019924 023.3975 014.3945 13.95860098474088
0 OPS 4988 (GREB 6)
1 01271U 65016A   13294.09206196  .00000086  00000-0  10116-3 0  4442
2 01271 070.0798 284.4330 0019989 022.0427 016.9767 13.95860214474225
0 OPS 4988 (GREB 6)
1 01271U 65016A   13295.17415587  .00000113  00000-0  12086-3 0  4458
2 01271 070.0798 282.1290 0020045 020.5818 054.6440 13.95860257474377
0 OPS 4988 (GREB 6)
1 01271U 65016A   13296.17779045  .00000086  00000-0  10072-3 0  4464
2 01271 070.0798 279.9921 0020137 019.2477 058.0195 13.95860530474515
